[{"OBJECT_NAME":"STARLINK-37025","OBJECT_ID":"2026-053S","EPOCH":"2026-03-29T04:00:01.999584","MEAN_MOTION":15.80832741,"ECCENTRICITY":0.0001408,"INCLINATION":97.2843,"RA_OF_ASC_NODE":323.3969,"ARG_OF_PERICENTER":100.7261,"MEAN_ANOMALY":325.861,"EPHEMERIS_TYPE":0,"CLASSIFICATION_TYPE":"U","NORAD_CAT_ID":68223,"ELEMENT_SET_NO":999,"REV_AT_EPOCH":314,"BSTAR":-0.00015207,"MEAN_MOTION_DOT":-0.00029195,"MEAN_MOTION_DDOT":0},{"OBJECT_NAME":"STARLINK-36977","OBJECT_ID":"2026-053T","EPOCH":"2026-03-29T04:00:01.999584","MEAN_MOTION":15.80869102,"ECCENTRICITY":0.0001594,"INCLINATION":97.2833,"RA_OF_ASC_NODE":323.3974,"ARG_OF_PERICENTER":92.9134,"MEAN_ANOMALY":337.964,"EPHEMERIS_TYPE":0,"CLASSIFICATION_TYPE":"U","NORAD_CAT_ID":68224,"ELEMENT_SET_NO":999,"REV_AT_EPOCH":303,"BSTAR":-0.00068606,"MEAN_MOTION_DOT":-0.0012994,"MEAN_MOTION_DDOT":0},{"OBJECT_NAME":"STARLINK-36960","OBJECT_ID":"2026-053U","EPOCH":"2026-03-29T04:00:01.999584","MEAN_MOTION":15.80777796,"ECCENTRICITY":0.0001892,"INCLINATION":97.2824,"RA_OF_ASC_NODE":323.3997,"ARG_OF_PERICENTER":99.7477,"MEAN_ANOMALY":335.385,"EPHEMERIS_TYPE":0,"CLASSIFICATION_TYPE":"U","NORAD_CAT_ID":68225,"ELEMENT_SET_NO":999,"REV_AT_EPOCH":312,"BSTAR":0.00066498,"MEAN_MOTION_DOT":0.0012891,"MEAN_MOTION_DDOT":0},{"OBJECT_NAME":"STARLINK-37038","OBJECT_ID":"2026-053V","EPOCH":"2026-03-29T04:00:01.999584","MEAN_MOTION":15.80865667,"ECCENTRICITY":0.0001714,"INCLINATION":97.2825,"RA_OF_ASC_NODE":323.4027,"ARG_OF_PERICENTER":99.5132,"MEAN_ANOMALY":344.1528,"EPHEMERIS_TYPE":0,"CLASSIFICATION_TYPE":"U","NORAD_CAT_ID":68226,"ELEMENT_SET_NO":999,"REV_AT_EPOCH":312,"BSTAR":-0.00044812,"MEAN_MOTION_DOT":-0.00085343,"MEAN_MOTION_DDOT":0},{"OBJECT_NAME":"STARLINK-37083","OBJECT_ID":"2026-053W","EPOCH":"2026-03-29T04:00:01.999584","MEAN_MOTION":15.80874091,"ECCENTRICITY":0.000175,"INCLINATION":97.2819,"RA_OF_ASC_NODE":323.401,"ARG_OF_PERICENTER":113.2383,"MEAN_ANOMALY":326.1609,"EPHEMERIS_TYPE":0,"CLASSIFICATION_TYPE":"U","NORAD_CAT_ID":68227,"ELEMENT_SET_NO":999,"REV_AT_EPOCH":314,"BSTAR":-0.00066724,"MEAN_MOTION_DOT":-0.00126461,"MEAN_MOTION_DDOT":0},{"OBJECT_NAME":"STARLINK-37050","OBJECT_ID":"2026-053X","EPOCH":"2026-03-29T04:00:01.999584","MEAN_MOTION":15.80846509,"ECCENTRICITY":8.71e-5,"INCLINATION":97.2826,"RA_OF_ASC_NODE":323.4048,"ARG_OF_PERICENTER":99.7063,"MEAN_ANOMALY":348.2329,"EPHEMERIS_TYPE":0,"CLASSIFICATION_TYPE":"U","NORAD_CAT_ID":68228,"ELEMENT_SET_NO":999,"REV_AT_EPOCH":312,"BSTAR":-0.00019833,"MEAN_MOTION_DOT":-0.00038018,"MEAN_MOTION_DDOT":0},{"OBJECT_NAME":"STARLINK-37081","OBJECT_ID":"2026-053Y","EPOCH":"2026-03-29T04:00:01.999584","MEAN_MOTION":15.80137849,"ECCENTRICITY":0.0001707,"INCLINATION":97.2819,"RA_OF_ASC_NODE":323.4103,"ARG_OF_PERICENTER":102.0772,"MEAN_ANOMALY":358.5015,"EPHEMERIS_TYPE":0,"CLASSIFICATION_TYPE":"U","NORAD_CAT_ID":68229,"ELEMENT_SET_NO":999,"REV_AT_EPOCH":314,"BSTAR":-0.011866,"MEAN_MOTION_DOT":-0.01922466,"MEAN_MOTION_DDOT":0},{"OBJECT_NAME":"STARLINK-37100","OBJECT_ID":"2026-053Z","EPOCH":"2026-03-29T04:00:01.999584","MEAN_MOTION":15.80831884,"ECCENTRICITY":0.0001583,"INCLINATION":97.2824,"RA_OF_ASC_NODE":323.4068,"ARG_OF_PERICENTER":100.6304,"MEAN_ANOMALY":351.5856,"EPHEMERIS_TYPE":0,"CLASSIFICATION_TYPE":"U","NORAD_CAT_ID":68230,"ELEMENT_SET_NO":999,"REV_AT_EPOCH":314,"BSTAR":-4.4595e-5,"MEAN_MOTION_DOT":-8.682e-5,"MEAN_MOTION_DDOT":0},{"OBJECT_NAME":"STARLINK-37104","OBJECT_ID":"2026-053AA","EPOCH":"2026-03-29T04:00:01.999584","MEAN_MOTION":15.80843336,"ECCENTRICITY":9.32e-5,"INCLINATION":97.2819,"RA_OF_ASC_NODE":323.4082,"ARG_OF_PERICENTER":73.756,"MEAN_ANOMALY":22.7517,"EPHEMERIS_TYPE":0,"CLASSIFICATION_TYPE":"U","NORAD_CAT_ID":68231,"ELEMENT_SET_NO":999,"REV_AT_EPOCH":314,"BSTAR":-0.00035523,"MEAN_MOTION_DOT":-0.00067741,"MEAN_MOTION_DDOT":0},{"OBJECT_NAME":"STARLINK-37027","OBJECT_ID":"2026-054A","EPOCH":"2026-03-29T03:56:02.230080","MEAN_MOTION":15.80112288,"ECCENTRICITY":0.0002295,"INCLINATION":53.1591,"RA_OF_ASC_NODE":215.0801,"ARG_OF_PERICENTER":231.539,"MEAN_ANOMALY":128.5427,"EPHEMERIS_TYPE":0,"CLASSIFICATION_TYPE":"U","NORAD_CAT_ID":68232,"ELEMENT_SET_NO":999,"REV_AT_EPOCH":185,"BSTAR":-5.3626e-5,"MEAN_MOTION_DOT":-0.00010902,"MEAN_MOTION_DDOT":0},{"OBJECT_NAME":"STARLINK-37132","OBJECT_ID":"2026-054B","EPOCH":"2026-03-29T03:54:42.155424","MEAN_MOTION":15.8107323,"ECCENTRICITY":7.99e-5,"INCLINATION":53.159,"RA_OF_ASC_NODE":215.0737,"ARG_OF_PERICENTER":1.1688,"MEAN_ANOMALY":358.9337,"EPHEMERIS_TYPE":0,"CLASSIFICATION_TYPE":"U","NORAD_CAT_ID":68233,"ELEMENT_SET_NO":999,"REV_AT_EPOCH":185,"BSTAR":0.0027066,"MEAN_MOTION_DOT":0.00576051,"MEAN_MOTION_DDOT":0},{"OBJECT_NAME":"STARLINK-37101","OBJECT_ID":"2026-054C","EPOCH":"2026-03-29T03:53:37.306176","MEAN_MOTION":15.81112298,"ECCENTRICITY":2.29e-5,"INCLINATION":53.1588,"RA_OF_ASC_NODE":215.0682,"ARG_OF_PERICENTER":264.1209,"MEAN_ANOMALY":95.9788,"EPHEMERIS_TYPE":0,"CLASSIFICATION_TYPE":"U","NORAD_CAT_ID":68234,"ELEMENT_SET_NO":999,"REV_AT_EPOCH":185,"BSTAR":0.0032007,"MEAN_MOTION_DOT":0.00692073,"MEAN_MOTION_DDOT":0},{"OBJECT_NAME":"STARLINK-36963","OBJECT_ID":"2026-054D","EPOCH":"2026-03-29T04:00:01.999584","MEAN_MOTION":15.80672005,"ECCENTRICITY":5.4e-5,"INCLINATION":53.159,"RA_OF_ASC_NODE":215.0278,"ARG_OF_PERICENTER":25.8566,"MEAN_ANOMALY":8.1709,"EPHEMERIS_TYPE":0,"CLASSIFICATION_TYPE":"U","NORAD_CAT_ID":68235,"ELEMENT_SET_NO":999,"REV_AT_EPOCH":304,"BSTAR":-0.011402,"MEAN_MOTION_DOT":-0.01939688,"MEAN_MOTION_DDOT":0},{"OBJECT_NAME":"STARLINK-37127","OBJECT_ID":"2026-054E","EPOCH":"2026-03-29T04:00:01.999584","MEAN_MOTION":15.75257081,"ECCENTRICITY":8.32e-5,"INCLINATION":53.1593,"RA_OF_ASC_NODE":215.1075,"ARG_OF_PERICENTER":100.7574,"MEAN_ANOMALY":254.4675,"EPHEMERIS_TYPE":0,"CLASSIFICATION_TYPE":"U","NORAD_CAT_ID":68236,"ELEMENT_SET_NO":999,"REV_AT_EPOCH":312,"BSTAR":-0.00037261,"MEAN_MOTION_DOT":-0.00057412,"MEAN_MOTION_DDOT":0},{"OBJECT_NAME":"STARLINK-37095","OBJECT_ID":"2026-054F","EPOCH":"2026-03-29T04:00:01.999584","MEAN_MOTION":15.75217068,"ECCENTRICITY":8.53e-5,"INCLINATION":53.1598,"RA_OF_ASC_NODE":215.0543,"ARG_OF_PERICENTER":82.3665,"MEAN_ANOMALY":298.61,"EPHEMERIS_TYPE":0,"CLASSIFICATION_TYPE":"U","NORAD_CAT_ID":68237,"ELEMENT_SET_NO":999,"REV_AT_EPOCH":304,"BSTAR":0.00015768,"MEAN_MOTION_DOT":0.00023575,"MEAN_MOTION_DDOT":0},{"OBJECT_NAME":"STARLINK-37097","OBJECT_ID":"2026-054G","EPOCH":"2026-03-29T04:00:01.999584","MEAN_MOTION":15.80837048,"ECCENTRICITY":0.0001008,"INCLINATION":53.1591,"RA_OF_ASC_NODE":215.0101,"ARG_OF_PERICENTER":110.9367,"MEAN_ANOMALY":291.6128,"EPHEMERIS_TYPE":0,"CLASSIFICATION_TYPE":"U","NORAD_CAT_ID":68238,"ELEMENT_SET_NO":999,"REV_AT_EPOCH":304,"BSTAR":0.00022206,"MEAN_MOTION_DOT":0.00043276,"MEAN_MOTION_DDOT":0}]
